CUTE-1 (CO-55)          
1 27844U 03031E   26159.25615714  .00000298  00000+0  14775-3 0  9991
2 27844  98.6735 167.9273 0008945 204.6801 155.3951 14.24330308190408
CUBESAT XI-IV (CO-57)   
1 27848U 03031J   26158.95900341  .00000277  00000+0  14071-3 0  9990
2 27848  98.6766 167.3539 0008515 225.8669 134.1810 14.23616071190069
CUBESAT XI-V            
1 28895U 05043F   26158.95798337  .00001615  00000+0  26180-3 0  9999
2 28895  98.2976 314.3867 0013088 231.5140 128.4894 14.72607812100390
CUTE-1.7+APD II (CO-65) 
1 32785U 08021C   26159.23300556  .00005519  00000+0  34936-3 0  9990
2 32785  97.8271 140.4661 0010356  64.8771 295.3530 15.09365894983840
CANX-2                  
1 32790U 08021H   26158.91725339  .00003784  00000+0  26693-3 0  9993
2 32790  97.8630 138.5159 0012099  78.2854 281.9729 15.05549911983416
SEEDS II (CO-66)        
1 32791U 08021J   26158.92960025  .00019726  00000+0  63151-3 0  9991
2 32791  97.7519 156.3875 0002464  31.6806 328.4582 15.32435639985877
SWISSCUBE               
1 35932U 09051B   26159.00067640  .00001155  00000+0  23775-3 0  9991
2 35932  98.4042  66.7288 0005474 236.3791 123.6888 14.62465103887819
BEESAT-1                
1 35933U 09051C   26159.48451627  .00000912  00000+0  19297-3 0  9990
2 35933  98.3972  66.8746 0003903 251.6493 108.4283 14.61707016887917
ITUPSAT1                
1 35935U 09051E   26158.98819542  .00000873  00000+0  19037-3 0  9998
2 35935  98.4056  65.5723 0006074 268.4530  91.5974 14.60427678887397
TISAT 1                 
1 36799U 10035E   26159.10083922  .00022207  00000+0  73458-3 0  9993
2 36799  98.0701 104.8459 0000137 151.1351 208.9896 15.31365756866318
AEROCUBE 4.5A           
1 38767U 12048K   26159.05699665  .00322925  45039-4  10948-2 0  9997
2 38767  64.6264  60.1548 0019497 216.0532 143.9313 15.89325478371203
STRAND-1                
1 39090U 13009E   26159.49251567  .00000293  00000+0  11298-3 0  9993
2 39090  98.3920 339.9410 0007425 255.1117 104.9248 14.37158195695814
BRITE-AUSTRIA           
1 39091U 13009F   26159.50164074  .00000190  00000+0  79283-4 0  9997
2 39091  98.3993 339.1526 0008963 265.8443  94.1719 14.36538756695809
NEE-01 PEGASO           
1 39151U 13018B   26159.35571899  .00003217  00000+0  31012-3 0  9994
2 39151  98.1214 303.2151 0012466 186.8479 173.2571 14.93619595709388
POPACS 2                
1 39269U 13055E   26158.71430171  .00012643  00000+0  21568-3 0  9999
2 39269  80.9909 155.0345 0417126 224.2238 132.4940 14.90985736661809
POPACS 3                
1 39270U 13055F   26159.52964872  .00010683  00000+0  25137-3 0  9999
2 39270  81.0011 238.5709 0552878  96.3321 270.1114 14.55959449637295
ZACUBE-1 (TSHEPISOSAT)  
1 39417U 13066B   26159.40866149  .00003601  00000+0  28140-3 0  9998
2 39417  97.8094 121.6980 0040004 278.5846  81.0846 15.01133786679417
WNISAT-1                
1 39423U 13066H   26159.42694274  .00000741  00000+0  14403-3 0  9994
2 39423  97.7193 309.2055 0161688 259.4066  98.8887 14.58048943665455
TRITON-1                
1 39427U 13066M   26159.51646873  .00002587  00000+0  31414-3 0  9991
2 39427  97.8248  69.5205 0088291 262.6270  96.4903 14.81677611672801
GOMX-1                  
1 39430U 13066Q   26159.46989822  .00002580  00000+0  39010-3 0  9996
2 39430  97.6493   0.4824 0130120 105.2255 256.3382 14.69429117668636
CUBEBUG-2 (LO-74)       
1 39440U 13066AA  26159.42178480  .00004132  00000+0  38299-3 0  9996
2 39440  97.8904 108.3636 0059286  57.5077 303.1854 14.93693224675686
NEE-02 KRYSAOR          
1 39441U 13066AB  26159.05520187  .00002722  00000+0  30090-3 0  9995
2 39441  97.8887  98.3357 0067674  99.4326 261.4548 14.86581020674842
FUNCUBE-1 (AO-73)       
1 39444U 13066AE  26159.43863648  .00005403  00000+0  33773-3 0  9992
2 39444  97.8273 130.7025 0034750 231.4089 128.4026 15.09385885678349
UWE-3                   
1 39446U 13066AG  26159.12517313  .00004591  00000+0  39518-3 0  9995
2 39446  97.8687 115.1387 0048867 351.6421   8.3981 14.96953360676222
BRITE-CA1 (TORONTO)     
1 40020U 14033L   26159.34087104  .00000723  00000+0  11645-3 0  9998
2 40020  97.9729 288.4324 0077461 305.8308  53.5720 14.72664800640914
DUCHIFAT-1              
1 40021U 14033M   26159.12664082  .00107166  00000+0  11780-2 0  9999
2 40021  98.0465 217.0282 0004621 132.1747 227.9902 15.62815586654330
NANOSATC-BR1            
1 40024U 14033Q   26159.31855628  .00014012  00000+0  46781-3 0  9998
2 40024  98.0731 190.9224 0003471 188.1992 171.9191 15.31171489652620
QB50P1                  
1 40025U 14033R   26159.51599980  .00008797  00000+0  43434-3 0  9992
2 40025  98.0972 170.0548 0007180 250.5787 109.4669 15.18129633651717
QB50P2                  
1 40032U 14033Y   26159.51445618  .00006573  00000+0  35525-3 0  9990
2 40032  98.0757 155.8557 0007088 191.3042 168.8030 15.15049271651357
PERSEUS-M2              
1 40037U 14033AD  26159.49884480  .00001631  00000+0  15269-3 0  9999
2 40037  97.9973 109.8632 0011378 337.3123  22.7593 14.95489945649488
